{
  "type": "FeatureCollection",
  "features": [
    {
      "type": "Feature",
      "properties": {
        "norad_id": 66690,
        "name": "TRANSPORTER-15AA",
        "group": "last-30-days",
        "lat": 42.702753903454145,
        "lon": -103.28564354278986,
        "alt_km": 511.92345781676613,
        "timestamp": "2025-12-24T05:51:18.324866+00:00",
        "meta_object_name": "TRANSPORTER-15AA",
        "meta_object_id": "2025-276AA",
        "meta_epoch": "2025-12-23T21:20:19.973184",
        "meta_mean_motion": 15.17067211,
        "meta_eccentricity": 0.00037147,
        "meta_inclination": 97.4391,
        "meta_ra_of_asc_node": 69.4403,
        "meta_arg_of_pericenter": 243.5069,
        "meta_mean_anomaly": 116.5784,
        "meta_ephemeris_type": 0,
        "meta_classification_type": "U",
        "meta_norad_cat_id": 66690,
        "meta_element_set_no": 999,
        "meta_rev_at_epoch": 381,
        "meta_bstar": 0.00036645873,
        "meta_mean_motion_dot": 7.191e-05,
        "meta_mean_motion_ddot": 0,
        "tle_line1": "1 66690U 25276AA  25357.88912006  .00007191  00000+0  36646-3 0  9990",
        "tle_line2": "2 66690  97.4391  69.4403 0003714 243.5069 116.5784 15.17067211  3817"
      },
      "geometry": {
        "type": "Point",
        "coordinates": [
          -103.28564354278986,
          42.702753903454145
        ]
      }
    },
    {
      "type": "Feature",
      "properties": {
        "norad_id": 66691,
        "name": "TRANSPORTER-15AB",
        "group": "last-30-days",
        "lat": 30.698880323014375,
        "lon": -105.74782138963279,
        "alt_km": 512.593115045318,
        "timestamp": "2025-12-24T05:51:18.324876+00:00",
        "meta_object_name": "TRANSPORTER-15AB",
        "meta_object_id": "2025-276AB",
        "meta_epoch": "2025-12-23T22:52:10.555680",
        "meta_mean_motion": 15.17316432,
        "meta_eccentricity": 0.00038215,
        "meta_inclination": 97.4416,
        "meta_ra_of_asc_node": 69.5154,
        "meta_arg_of_pericenter": 244.8083,
        "meta_mean_anomaly": 115.2755,
        "meta_ephemeris_type": 0,
        "meta_classification_type": "U",
        "meta_norad_cat_id": 66691,
        "meta_element_set_no": 999,
        "meta_rev_at_epoch": 382,
        "meta_bstar": 0.00059659775,
        "meta_mean_motion_dot": 0.00011841,
        "meta_mean_motion_ddot": 0,
        "tle_line1": "1 66691U 25276AB  25357.95289995  .00011841  00000+0  59660-3 0  9991",
        "tle_line2": "2 66691  97.4416  69.5154 0003821 244.8083 115.2755 15.17316432  3826"
      },
      "geometry": {
        "type": "Point",
        "coordinates": [
          -105.74782138963279,
          30.698880323014375
        ]
      }
    },
    {
      "type": "Feature",
      "properties": {
        "norad_id": 66692,
        "name": "TRANSPORTER-15AC",
        "group": "last-30-days",
        "lat": 13.285949369149264,
        "lon": -108.41873040631101,
        "alt_km": 514.961995880466,
        "timestamp": "2025-12-24T05:51:18.324886+00:00",
        "meta_object_name": "TRANSPORTER-15AC",
        "meta_object_id": "2025-276AC",
        "meta_epoch": "2025-12-23T03:48:04.245408",
        "meta_mean_motion": 15.17403594,
        "meta_eccentricity": 0.00017836,
        "meta_inclination": 97.442,
        "meta_ra_of_asc_node": 68.746,
        "meta_arg_of_pericenter": 265.923,
        "meta_mean_anomaly": 94.18,
        "meta_ephemeris_type": 0,
        "meta_classification_type": "U",
        "meta_norad_cat_id": 66692,
        "meta_element_set_no": 999,
        "meta_rev_at_epoch": 370,
        "meta_bstar": 0.00037104473,
        "meta_mean_motion_dot": 7.352e-05,
        "meta_mean_motion_ddot": 0,
        "tle_line1": "1 66692U 25276AC  25357.15838247  .00007352  00000+0  37104-3 0  9995",
        "tle_line2": "2 66692  97.4420  68.7460 0001783 265.9230  94.1800 15.17403594  3705"
      },
      "geometry": {
        "type": "Point",
        "coordinates": [
          -108.41873040631101,
          13.285949369149264
        ]
      }
    },
    {
      "type": "Feature",
      "properties": {
        "norad_id": 66693,
        "name": "TRANSPORTER-15AD",
        "group": "last-30-days",
        "lat": 20.26347799638905,
        "lon": -107.44498920850741,
        "alt_km": 524.434309960312,
        "timestamp": "2025-12-24T05:51:18.324898+00:00",
        "meta_object_name": "TRANSPORTER-15AD",
        "meta_object_id": "2025-276AD",
        "meta_epoch": "2025-12-23T14:53:14.958528",
        "meta_mean_motion": 15.15704681,
        "meta_eccentricity": 0.00074725,
        "meta_inclination": 97.4378,
        "meta_ra_of_asc_node": 69.1805,
        "meta_arg_of_pericenter": 58.0372,
        "meta_mean_anomaly": 302.1586,
        "meta_ephemeris_type": 0,
        "meta_classification_type": "U",
        "meta_norad_cat_id": 66693,
        "meta_element_set_no": 999,
        "meta_rev_at_epoch": 377,
        "meta_bstar": -0.062401837,
        "meta_mean_motion_dot": -0.01099919,
        "meta_mean_motion_ddot": 0,
        "tle_line1": "1 66693U 25276AD  25357.62031202 -.01099919  00000+0 -62402-1 0  9994",
        "tle_line2": "2 66693  97.4378  69.1805 0007472  58.0372 302.1586 15.15704681  3774"
      },
      "geometry": {
        "type": "Point",
        "coordinates": [
          -107.44498920850741,
          20.26347799638905
        ]
      }
    },
    {
      "type": "Feature",
      "properties": {
        "norad_id": 66694,
        "name": "YAM-9",
        "group": "last-30-days",
        "lat": 3.144064742567538,
        "lon": -109.77599300832144,
        "alt_km": 515.5907783938565,
        "timestamp": "2025-12-24T05:51:18.324911+00:00",
        "meta_object_name": "YAM-9",
        "meta_object_id": "2025-276AE",
        "meta_epoch": "2025-12-22T15:05:57.357312",
        "meta_mean_motion": 15.17554197,
        "meta_eccentricity": 0.00015162,
        "meta_inclination": 97.4414,
        "meta_ra_of_asc_node": 68.2259,
        "meta_arg_of_pericenter": 262.5734,
        "meta_mean_anomaly": 97.5327,
        "meta_ephemeris_type": 0,
        "meta_classification_type": "U",
        "meta_norad_cat_id": 66694,
        "meta_element_set_no": 999,
        "meta_rev_at_epoch": 362,
        "meta_bstar": 0.00067893264,
        "meta_mean_motion_dot": 0.00013577,
        "meta_mean_motion_ddot": 0,
        "tle_line1": "1 66694U 25276AE  25356.62913608  .00013577  00000+0  67893-3 0  9997",
        "tle_line2": "2 66694  97.4414  68.2259 0001516 262.5734  97.5327 15.17554197  3625"
      },
      "geometry": {
        "type": "Point",
        "coordinates": [
          -109.77599300832144,
          3.144064742567538
        ]
      }
    },
    {
      "type": "Feature",
      "properties": {
        "norad_id": 66695,
        "name": "IRIDE FM1",
        "group": "last-30-days",
        "lat": -57.063103262238194,
        "lon": -121.80454786368847,
        "alt_km": 518.2278770511866,
        "timestamp": "2025-12-24T05:51:18.324921+00:00",
        "meta_object_name": "IRIDE FM1",
        "meta_object_id": "2025-276AF",
        "meta_epoch": "2025-12-23T14:34:31.679904",
        "meta_mean_motion": 15.1827608,
        "meta_eccentricity": 0.00013706,
        "meta_inclination": 97.4401,
        "meta_ra_of_asc_node": 69.2066,
        "meta_arg_of_pericenter": 143.5712,
        "meta_mean_anomaly": 216.5616,
        "meta_ephemeris_type": 0,
        "meta_classification_type": "U",
        "meta_norad_cat_id": 66695,
        "meta_element_set_no": 999,
        "meta_rev_at_epoch": 377,
        "meta_bstar": 0.00059562402,
        "meta_mean_motion_dot": 0.00012151,
        "meta_mean_motion_ddot": 0,
        "tle_line1": "1 66695U 25276AF  25357.60731111  .00012151  00000+0  59562-3 0  9995",
        "tle_line2": "2 66695  97.4401  69.2066 0001370 143.5712 216.5616 15.18276080  3774"
      },
      "geometry": {
        "type": "Point",
        "coordinates": [
          -121.80454786368847,
          -57.063103262238194
        ]
      }
    },
    {
      "type": "Feature",
      "properties": {
        "norad_id": 66696,
        "name": "IRIDE FM2",
        "group": "last-30-days",
        "lat": 17.186205714032244,
        "lon": -107.88738089884993,
        "alt_km": 514.4612832535613,
        "timestamp": "2025-12-24T05:51:18.324931+00:00",
        "meta_object_name": "IRIDE FM2",
        "meta_object_id": "2025-276AG",
        "meta_epoch": "2025-12-23T22:48:37.085472",
        "meta_mean_motion": 15.17434405,
        "meta_eccentricity": 0.00025126,
        "meta_inclination": 97.4387,
        "meta_ra_of_asc_node": 69.5084,
        "meta_arg_of_pericenter": 263.0774,
        "meta_mean_anomaly": 97.0174,
        "meta_ephemeris_type": 0,
        "meta_classification_type": "U",
        "meta_norad_cat_id": 66696,
        "meta_element_set_no": 999,
        "meta_rev_at_epoch": 382,
        "meta_bstar": 0.00054592196,
        "meta_mean_motion_dot": 0.00010864,
        "meta_mean_motion_ddot": 0,
        "tle_line1": "1 66696U 25276AG  25357.95042923  .00010864  00000+0  54592-3 0  9997",
        "tle_line2": "2 66696  97.4387  69.5084 0002512 263.0774  97.0174 15.17434405  3829"
      },
      "geometry": {
        "type": "Point",
        "coordinates": [
          -107.88738089884993,
          17.186205714032244
        ]
      }
    }
  ]
}